CSS (MENGTIAN)          
1 54216U 22143A   24275.67425384  .00067097  00000+0  70285-3 0  9992
2 54216  41.4661 153.7588 0003220  77.7853 282.3348 15.63462177109577
TIANZHOU-7              
1 58811U 24013A   24275.67425384  .00067097  00000+0  70285-3 0  9995
2 58811  41.4661 153.7588 0003220  77.7853 282.3348 15.63462177474881
CREW DRAGON 8           
1 59097U 24042A   24276.51581177  .00028880  00000+0  51044-3 0  9990
2 59097  51.6389 143.7648 0007530  53.7899  16.6842 15.50071376472693
1998-067WL              
1 59561U 98067WL  24276.30769810  .00147278  00000+0  10986-2 0  9995
2 59561  51.6257 133.4856 0002112 222.3318 137.7517 15.71764785 26045
SHENZHOU-18 (SZ-18)     
1 59591U 24078A   24275.67425384  .00067097  00000+0  70285-3 0  9992
2 59591  41.4661 153.7588 0003220  77.7853 282.3348 15.63462177 24754
SZ-17 MODULE            
1 59624U 23164C   24276.83171098  .00145036  00000+0  74392-3 0  9996
2 59624  41.4721 137.7727 0013224 289.0018  70.9394 15.79900921 24473
PROGRESS-MS 27          
1 59913U 24103A   24276.51581177  .00028880  00000+0  51044-3 0  9995
2 59913  51.6389 143.7648 0007530  53.7899  16.6842 15.50071376 18753
CYGNUS NG-21            
1 60378U 24139A   24276.51581177  .00028880  00000+0  51044-3 0  9991
2 60378  51.6389 143.7648 0007530  53.7899  16.6842 15.50071376  8591
PROGRESS-MS 28          
1 60450U 24145A   24276.51581177  .00028880  00000+0  51044-3 0  9999
2 60450  51.6389 143.7648 0007530  53.7899  16.6842 15.50071376  7197
BINAR-4                 
1 60952U 98067WS  24276.05080179  .00296229  00000+0  31754-2 0  9994
2 60952  51.6329 144.5634 0003110  94.1070 266.0280 15.62300968  5248
COSMOGIRLSAT            
1 60953U 98067WT  24275.89180443  .00168220  00000+0  21542-2 0  9994
2 60953  51.6348 145.7553 0007561  68.0518 292.1277 15.58073228  5218
SAKURA                  
1 60954U 98067WU  24275.88173187  .00190980  00000+0  23472-2 0  9993
2 60954  51.6346 145.6873 0006900  70.9104 289.2635 15.59083512  5213
1998-067WV              
1 60955U 98067WV  24276.81718300  .00563626  00000+0  43320-2 0  9995
2 60955  51.6316 139.9315 0002420 206.9664 153.1208 15.69764302  5379
BINAR-2                 
1 60956U 98067WW  24276.05804118  .00229823  00000+0  26303-2 0  9995
2 60956  51.6289 144.6052 0004579  85.8525 274.2992 15.60827313  5230
BINAR-3                 
1 60957U 98067WX  24276.67939579  .00313930  00000+0  31906-2 0  9992
2 60957  51.6312 141.2599 0002552 100.4412 259.6870 15.63607223  7328
1998-067WY              
1 60958U 98067WY  24276.34581159  .00161702  00000+0  21024-2 0  9992
2 60958  51.6353 143.5387 0007923  68.0299 292.1534 15.57690449  5279
SOYUZ-MS 26             
1 61043U 24162A   24276.51581177  .00028880  00000+0  51044-3 0  9997
2 61043  51.6389 143.7648 0007530  53.7899  16.6842 15.50071376472697
CREW DRAGON 9           
1 61447U 24178A   24276.51581177  .00028880  00000+0  51044-3 0  9992
2 61447  51.6389 143.7648 0007530  53.7899  16.6842 15.50071376474888
